{
  "type": "FeatureCollection",
  "features": [
    {
      "type": "Feature",
      "properties": {
        "norad_id": 43823,
        "name": "GEO-KOMPSAT-2A",
        "group": "weather",
        "lat": 0.014763105964565693,
        "lon": 171.50508649169598,
        "alt_km": 35787.34552347557,
        "timestamp": "2025-12-26T20:30:45.580956+00:00",
        "meta_object_name": "GEO-KOMPSAT-2A",
        "meta_object_id": "2018-100A",
        "meta_epoch": "2025-12-25T12:13:38.614080",
        "meta_mean_motion": 1.00268534,
        "meta_eccentricity": 2.51e-05,
        "meta_inclination": 0.0434,
        "meta_ra_of_asc_node": 172.7377,
        "meta_arg_of_pericenter": 259.9479,
        "meta_mean_anomaly": 333.2359,
        "meta_ephemeris_type": 0,
        "meta_classification_type": "U",
        "meta_norad_cat_id": 43823,
        "meta_element_set_no": 999,
        "meta_rev_at_epoch": 2588,
        "meta_bstar": 0,
        "meta_mean_motion_dot": -3.22e-06,
        "meta_mean_motion_ddot": 0,
        "tle_line1": "1 43823U 18100A   25359.50947470 -.00000322  00000+0  00000+0 0  9996",
        "tle_line2": "2 43823   0.0434 172.7377 0000251 259.9479 333.2359  1.00268534 25880"
      },
      "geometry": {
        "type": "Point",
        "coordinates": [
          171.50508649169598,
          0.014763105964565693
        ]
      }
    },
    {
      "type": "Feature",
      "properties": {
        "norad_id": 44387,
        "name": "METEOR-M2 2",
        "group": "weather",
        "lat": -11.827101717420746,
        "lon": -17.362808728518466,
        "alt_km": 816.0802104568393,
        "timestamp": "2025-12-26T20:30:45.580966+00:00",
        "meta_object_name": "METEOR-M2 2",
        "meta_object_id": "2019-038A",
        "meta_epoch": "2025-12-26T13:49:29.247744",
        "meta_mean_motion": 14.24297488,
        "meta_eccentricity": 0.00018217,
        "meta_inclination": 98.8991,
        "meta_ra_of_asc_node": 340.4749,
        "meta_arg_of_pericenter": 122.7366,
        "meta_mean_anomaly": 237.3988,
        "meta_ephemeris_type": 0,
        "meta_classification_type": "U",
        "meta_norad_cat_id": 44387,
        "meta_element_set_no": 999,
        "meta_rev_at_epoch": 33672,
        "meta_bstar": 0.00014598871,
        "meta_mean_motion_dot": 2.91e-06,
        "meta_mean_motion_ddot": 0,
        "tle_line1": "1 44387U 19038A   25360.57603296  .00000291  00000+0  14599-3 0  9993",
        "tle_line2": "2 44387  98.8991 340.4749 0001821 122.7366 237.3988 14.24297488336722"
      },
      "geometry": {
        "type": "Point",
        "coordinates": [
          -17.362808728518466,
          -11.827101717420746
        ]
      }
    },
    {
      "type": "Feature",
      "properties": {
        "norad_id": 47719,
        "name": "ARKTIKA-M 1",
        "group": "weather",
        "lat": 58.85980383348557,
        "lon": -154.65963820896542,
        "alt_km": 34517.573841283345,
        "timestamp": "2025-12-26T20:30:45.580978+00:00",
        "meta_object_name": "ARKTIKA-M 1",
        "meta_object_id": "2021-016A",
        "meta_epoch": "2025-12-26T00:48:12.401568",
        "meta_mean_motion": 2.00630537,
        "meta_eccentricity": 0.72107999,
        "meta_inclination": 63.1768,
        "meta_ra_of_asc_node": 82.1795,
        "meta_arg_of_pericenter": 269.1717,
        "meta_mean_anomaly": 15.5344,
        "meta_ephemeris_type": 0,
        "meta_classification_type": "U",
        "meta_norad_cat_id": 47719,
        "meta_element_set_no": 999,
        "meta_rev_at_epoch": 3531,
        "meta_bstar": 0,
        "meta_mean_motion_dot": -4.1e-07,
        "meta_mean_motion_ddot": 0,
        "tle_line1": "1 47719U 21016A   25360.03347687 -.00000041  00000+0  00000+0 0  9996",
        "tle_line2": "2 47719  63.1768  82.1795 7210799 269.1717  15.5344  2.00630537 35311"
      },
      "geometry": {
        "type": "Point",
        "coordinates": [
          -154.65963820896542,
          58.85980383348557
        ]
      }
    },
    {
      "type": "Feature",
      "properties": {
        "norad_id": 49008,
        "name": "FENGYUN 3E",
        "group": "weather",
        "lat": 78.96762540743987,
        "lon": -50.95568657437257,
        "alt_km": 818.529259069509,
        "timestamp": "2025-12-26T20:30:45.580988+00:00",
        "meta_object_name": "FENGYUN 3E",
        "meta_object_id": "2021-062A",
        "meta_epoch": "2025-12-26T15:02:53.736576",
        "meta_mean_motion": 14.19882587,
        "meta_eccentricity": 0.00010262,
        "meta_inclination": 98.7481,
        "meta_ra_of_asc_node": 0.9833,
        "meta_arg_of_pericenter": 185.6525,
        "meta_mean_anomaly": 174.464,
        "meta_ephemeris_type": 0,
        "meta_classification_type": "U",
        "meta_norad_cat_id": 49008,
        "meta_element_set_no": 999,
        "meta_rev_at_epoch": 23209,
        "meta_bstar": 0.00015395903,
        "meta_mean_motion_dot": 2.83e-06,
        "meta_mean_motion_ddot": 0,
        "tle_line1": "1 49008U 21062A   25360.62701084  .00000283  00000+0  15396-3 0  9995",
        "tle_line2": "2 49008  98.7481   0.9833 0001026 185.6525 174.4640 14.19882587232099"
      },
      "geometry": {
        "type": "Point",
        "coordinates": [
          -50.95568657437257,
          78.96762540743987
        ]
      }
    },
    {
      "type": "Feature",
      "properties": {
        "norad_id": 51850,
        "name": "GOES 18",
        "group": "weather",
        "lat": -0.0012826454860265703,
        "lon": -93.73645402311158,
        "alt_km": 35786.772309155516,
        "timestamp": "2025-12-26T20:30:45.581000+00:00",
        "meta_object_name": "GOES 18",
        "meta_object_id": "2022-021A",
        "meta_epoch": "2025-12-26T13:25:07.004640",
        "meta_mean_motion": 1.00266539,
        "meta_eccentricity": 2.67e-05,
        "meta_inclination": 0.0396,
        "meta_ra_of_asc_node": 207.2899,
        "meta_arg_of_pericenter": 107.2467,
        "meta_mean_anomaly": 205.0399,
        "meta_ephemeris_type": 0,
        "meta_classification_type": "U",
        "meta_norad_cat_id": 51850,
        "meta_element_set_no": 999,
        "meta_rev_at_epoch": 486,
        "meta_bstar": 0,
        "meta_mean_motion_dot": 1.19e-06,
        "meta_mean_motion_ddot": 0,
        "tle_line1": "1 51850U 22021A   25360.55910885  .00000119  00000+0  00000+0 0  9992",
        "tle_line2": "2 51850   0.0396 207.2899 0000267 107.2467 205.0399  1.00266539  4866"
      },
      "geometry": {
        "type": "Point",
        "coordinates": [
          -93.73645402311158,
          -0.0012826454860265703
        ]
      }
    },
    {
      "type": "Feature",
      "properties": {
        "norad_id": 54234,
        "name": "NOAA 21 (JPSS-2)",
        "group": "weather",
        "lat": 69.74662026129413,
        "lon": -87.67578102537126,
        "alt_km": 819.6501625219507,
        "timestamp": "2025-12-26T20:30:45.581010+00:00",
        "meta_object_name": "NOAA 21 (JPSS-2)",
        "meta_object_id": "2022-150A",
        "meta_epoch": "2025-12-26T13:24:35.195616",
        "meta_mean_motion": 14.19527935,
        "meta_eccentricity": 0.00015759,
        "meta_inclination": 98.7479,
        "meta_ra_of_asc_node": 296.6957,
        "meta_arg_of_pericenter": 9.0885,
        "meta_mean_anomaly": 351.0319,
        "meta_ephemeris_type": 0,
        "meta_classification_type": "U",
        "meta_norad_cat_id": 54234,
        "meta_element_set_no": 999,
        "meta_rev_at_epoch": 16205,
        "meta_bstar": 7.3003511e-05,
        "meta_mean_motion_dot": 1.1e-06,
        "meta_mean_motion_ddot": 0,
        "tle_line1": "1 54234U 22150A   25360.55874069  .00000110  00000+0  73004-4 0  9997",
        "tle_line2": "2 54234  98.7479 296.6957 0001575   9.0885 351.0319 14.19527935162058"
      },
      "geometry": {
        "type": "Point",
        "coordinates": [
          -87.67578102537126,
          69.74662026129413
        ]
      }
    },
    {
      "type": "Feature",
      "properties": {
        "norad_id": 54743,
        "name": "METEOSAT-12 (MTG-I1)",
        "group": "weather",
        "lat": 0.21618930119152338,
        "lon": 42.962799617181425,
        "alt_km": 35791.40677661527,
        "timestamp": "2025-12-26T20:30:45.581021+00:00",
        "meta_object_name": "METEOSAT-12 (MTG-I1)",
        "meta_object_id": "2022-170C",
        "meta_epoch": "2025-12-26T08:51:38.739168",
        "meta_mean_motion": 1.00270911,
        "meta_eccentricity": 0.00017146,
        "meta_inclination": 0.7011,
        "meta_ra_of_asc_node": 25.8801,
        "meta_arg_of_pericenter": 242.0428,
        "meta_mean_anomaly": 319.779,
        "meta_ephemeris_type": 0,
        "meta_classification_type": "U",
        "meta_norad_cat_id": 54743,
        "meta_element_set_no": 999,
        "meta_rev_at_epoch": 1124,
        "meta_bstar": 0,
        "meta_mean_motion_dot": 1.4e-07,
        "meta_mean_motion_ddot": 0,
        "tle_line1": "1 54743U 22170C   25360.36919837  .00000014  00000+0  00000+0 0  9990",
        "tle_line2": "2 54743   0.7011  25.8801 0001714 242.0428 319.7790  1.00270911 11248"
      },
      "geometry": {
        "type": "Point",
        "coordinates": [
          42.962799617181425,
          0.21618930119152338
        ]
      }
    }
  ]
}